start=new Date('2022-03-10T00:00:00.000Z').valueOf();
sats=[{"TLE_LINE2":"2 48642  53.0558 199.6400 0001391  75.8744 284.2399 15.06398619 43529","MEAN_MOTION":"15.06398619","MEAN_MOTION_DOT":"0.00003735","SITE":"AFETR","ELEMENT_SET_NO":"999","FILE":"3352875","RA_OF_ASC_NODE":"199.6400","TLE_LINE1":"1 48642U 21044E   22068.83771159  .00003735  00000-0  26949-3 0  9995","ECCENTRICITY":"0.00013910","RCS_SIZE":"LARGE","CENTER_NAME":"EARTH","GP_ID":"198361552","MEAN_ELEMENT_THEORY":"SGP4","OBJECT_ID":"2021-044E","CLASSIFICATION_TYPE":"U","ARG_OF_PERICENTER":"75.8744","NORAD_CAT_ID":"48642","COUNTRY_CODE":"US","REF_FRAME":"TEME","EPOCH":"2022-03-09T20:06:18.281376","MEAN_MOTION_DDOT":"0.0000000000000","TIME_SYSTEM":"UTC","BSTAR":"0.00026949000000","REV_AT_EPOCH":"4352","PERIAPSIS":"546.254","APOAPSIS":"548.181","OBJECT_TYPE":"PAYLOAD","LAUNCH_DATE":"2021-05-26","DECAY_DATE":null,"OBJECT_NAME":"STARLINK-2646","PERIOD":"95.592","SEMIMAJOR_AXIS":"6925.353","EPHEMERIS_TYPE":"0","INCLINATION":"53.0558","MEAN_ANOMALY":"284.2399"},{"TLE_LINE2":"2 48643  53.0554 200.0095 0001821  85.1909 274.9288 15.06334978 43518","MEAN_MOTION":"15.06334978","MEAN_MOTION_DOT":"0.00012824","SITE":"AFETR","ELEMENT_SET_NO":"999","RA_OF_ASC_NODE":"200.0095","TLE_LINE1":"1 48643U 21044F   22068.75388826  .00012824  00000-0  87979-3 0  9991","ECCENTRICITY":"0.00018210","FILE":"3352875","RCS_SIZE":"LARGE","GP_ID":"198361802","CENTER_NAME":"EARTH","MEAN_ELEMENT_THEORY":"SGP4","OBJECT_ID":"2021-044F","CLASSIFICATION_TYPE":"U","NORAD_CAT_ID":"48643","ARG_OF_PERICENTER":"85.1909","MEAN_MOTION_DDOT":"0.0000000000000","TIME_SYSTEM":"UTC","REF_FRAME":"TEME","COUNTRY_CODE":"US","EPOCH":"2022-03-09T18:05:35.945664","PERIAPSIS":"546.152","BSTAR":"0.00087979000000","REV_AT_EPOCH":"4351","LAUNCH_DATE":"2021-05-26","OBJECT_TYPE":"PAYLOAD","APOAPSIS":"548.674","DECAY_DATE":null,"PERIOD":"95.596","OBJECT_NAME":"STARLINK-2704","SEMIMAJOR_AXIS":"6925.548","INCLINATION":"53.0554","EPHEMERIS_TYPE":"0","MEAN_ANOMALY":"274.9288"},{"MEAN_MOTION_DOT":"0.00001885","SITE":"AFETR","TLE_LINE2":"2 48644  53.0546 200.0412 0001513  63.6598 296.4547 15.06394394 43511","MEAN_MOTION":"15.06394394","RCS_SIZE":"LARGE","OBJECT_ID":"2021-044G","GP_ID":"198362053","MEAN_ELEMENT_THEORY":"SGP4","CENTER_NAME":"EARTH","ELEMENT_SET_NO":"999","ECCENTRICITY":"0.00015130","TLE_LINE1":"1 48644U 21044G   22068.75018881  .00001885  00000-0  14546-3 0  9998","RA_OF_ASC_NODE":"200.0412","FILE":"3352875","TIME_SYSTEM":"UTC","MEAN_MOTION_DDOT":"0.0000000000000","COUNTRY_CODE":"US","REF_FRAME":"TEME","EPOCH":"2022-03-09T18:00:16.313184","PERIAPSIS":"546.183","REV_AT_EPOCH":"4351","BSTAR":"0.00014546000000","CLASSIFICATION_TYPE":"U","NORAD_CAT_ID":"48644","ARG_OF_PERICENTER":"63.6598","SEMIMAJOR_AXIS":"6925.366","MEAN_ANOMALY":"296.4547","INCLINATION":"53.0546","EPHEMERIS_TYPE":"0","LAUNCH_DATE":"2021-05-26","APOAPSIS":"548.279","OBJECT_TYPE":"PAYLOAD","DECAY_DATE":null,"OBJECT_NAME":"STARLINK-2695","PERIOD":"95.592"},{"RCS_SIZE":"LARGE","OBJECT_ID":"2021-044H","GP_ID":"198362304","CENTER_NAME":"EARTH","MEAN_ELEMENT_THEORY":"SGP4","ELEMENT_SET_NO":"999","FILE":"3352875","TLE_LINE1":"1 48645U 21044H   22068.74650398  .00001322  00000-0  10765-3 0  9998","ECCENTRICITY":"0.00013210","RA_OF_ASC_NODE":"200.0525","MEAN_MOTION_DOT":"0.00001322","SITE":"AFETR","TLE_LINE2":"2 48645  53.0547 200.0525 0001321  70.5681 289.5451 15.06392215 43512","MEAN_MOTION":"15.06392215","SEMIMAJOR_AXIS":"6925.372","MEAN_ANOMALY":"289.5451","EPHEMERIS_TYPE":"0","INCLINATION":"53.0547","APOAPSIS":"548.152","OBJECT_TYPE":"PAYLOAD","LAUNCH_DATE":"2021-05-26","OBJECT_NAME":"STARLINK-2733","DECAY_DATE":null,"PERIOD":"95.593","COUNTRY_CODE":"US","REF_FRAME":"TEME","EPOCH":"2022-03-09T17:54:57.943872","TIME_SYSTEM":"UTC","MEAN_MOTION_DDOT":"0.0000000000000","REV_AT_EPOCH":"4351","BSTAR":"0.00010765000000","PERIAPSIS":"546.323","CLASSIFICATION_TYPE":"U","ARG_OF_PERICENTER":"70.5681","NORAD_CAT_ID":"48645"},{"EPHEMERIS_TYPE":"0","INCLINATION":"53.0552","MEAN_ANOMALY":"249.0787","SEMIMAJOR_AXIS":"6925.350","DECAY_DATE":null,"OBJECT_NAME":"STARLINK-2732","PERIOD":"95.592","LAUNCH_DATE":"2021-05-26","APOAPSIS":"548.047","OBJECT_TYPE":"PAYLOAD","PERIAPSIS":"546.383","BSTAR":"0.00010068000000","REV_AT_EPOCH":"4351","MEAN_MOTION_DDOT":"0.0000000000000","TIME_SYSTEM":"UTC","EPOCH":"2022-03-09T17:49:38.503200","COUNTRY_CODE":"US","REF_FRAME":"TEME","NORAD_CAT_ID":"48646","ARG_OF_PERICENTER":"111.0330","CLASSIFICATION_TYPE":"U","GP_ID":"198361052","CENTER_NAME":"EARTH","MEAN_ELEMENT_THEORY":"SGP4","OBJECT_ID":"2021-044J","RCS_SIZE":"LARGE","RA_OF_ASC_NODE":"200.0500","ECCENTRICITY":"0.00012010","TLE_LINE1":"1 48646U 21044J   22068.74280675  .00001219  00000-0  10068-3 0  9997","FILE":"3352875","ELEMENT_SET_NO":"999","SITE":"AFETR","MEAN_MOTION_DOT":"0.00001219","MEAN_MOTION":"15.06399477","TLE_LINE2":"2 48646  53.0552 200.0500 0001201 111.0330 249.0787 15.06399477 43511"},{"MEAN_MOTION_DOT":"-0.00000328","SITE":"AFETR","TLE_LINE2":"2 48647  53.0555 200.3858 0001458  85.2622 274.8533 15.06398097 43505","MEAN_MOTION":"15.06398097","RCS_SIZE":"LARGE","CENTER_NAME":"EARTH","GP_ID":"198361302","MEAN_ELEMENT_THEORY":"SGP4","OBJECT_ID":"2021-044K","ELEMENT_SET_NO":"999","FILE":"3352875","RA_OF_ASC_NODE":"200.3858","ECCENTRICITY":"0.00014580","TLE_LINE1":"1 48647U 21044K   22068.67278178 -.00000328  00000-0 -31078-5 0  9993","EPOCH":"2022-03-09T16:08:48.345792","COUNTRY_CODE":"US","REF_FRAME":"TEME","MEAN_MOTION_DDOT":"0.0000000000000","TIME_SYSTEM":"UTC","BSTAR":"-0.00000310780000","REV_AT_EPOCH":"4350","PERIAPSIS":"546.210","CLASSIFICATION_TYPE":"U","ARG_OF_PERICENTER":"85.2622","NORAD_CAT_ID":"48647","SEMIMAJOR_AXIS":"6925.354","INCLINATION":"53.0555","EPHEMERIS_TYPE":"0","MEAN_ANOMALY":"274.8533","APOAPSIS":"548.229","OBJECT_TYPE":"PAYLOAD","LAUNCH_DATE":"2021-05-26","DECAY_DATE":null,"OBJECT_NAME":"STARLINK-2691","PERIOD":"95.592"},{"ELEMENT_SET_NO":"999","FILE":"3352875","ECCENTRICITY":"0.00012770","TLE_LINE1":"1 48648U 21044L   22068.67184325  .00002060  00000-0  15721-3 0  9992","RA_OF_ASC_NODE":"200.3863","RCS_SIZE":"LARGE","OBJECT_ID":"2021-044L","CENTER_NAME":"EARTH","GP_ID":"198362554","MEAN_ELEMENT_THEORY":"SGP4","TLE_LINE2":"2 48648  53.0556 200.3863 0001277  76.3772 283.7359 15.06391027 43500","MEAN_MOTION":"15.06391027","MEAN_MOTION_DOT":"0.00002060","SITE":"AFETR","APOAPSIS":"548.125","OBJECT_TYPE":"PAYLOAD","LAUNCH_DATE":"2021-05-26","DECAY_DATE":null,"OBJECT_NAME":"STARLINK-2521","PERIOD":"95.593","SEMIMAJOR_AXIS":"6925.376","MEAN_ANOMALY":"283.7359","INCLINATION":"53.0556","EPHEMERIS_TYPE":"0","CLASSIFICATION_TYPE":"U","ARG_OF_PERICENTER":"76.3772","NORAD_CAT_ID":"48648","COUNTRY_CODE":"US","EPOCH":"2022-03-09T16:07:27.256800","REF_FRAME":"TEME","TIME_SYSTEM":"UTC","MEAN_MOTION_DDOT":"0.0000000000000","REV_AT_EPOCH":"4350","BSTAR":"0.00015721000000","PERIAPSIS":"546.357"},{"MEAN_ANOMALY":"297.7486","INCLINATION":"53.0548","EPHEMERIS_TYPE":"0","SEMIMAJOR_AXIS":"6925.642","PERIOD":"95.598","DECAY_DATE":null,"OBJECT_NAME":"STARLINK-2673","LAUNCH_DATE":"2021-05-26","APOAPSIS":"548.971","OBJECT_TYPE":"PAYLOAD","PERIAPSIS":"546.043","REV_AT_EPOCH":"4350","BSTAR":"0.00156480000000","TIME_SYSTEM":"UTC","MEAN_MOTION_DDOT":"0.0000000000000","REF_FRAME":"TEME","COUNTRY_CODE":"US","EPOCH":"2022-03-09T17:39:04.273632","NORAD_CAT_ID":"48649","ARG_OF_PERICENTER":"62.3717","CLASSIFICATION_TYPE":"U","OBJECT_ID":"2021-044M","CENTER_NAME":"EARTH","GP_ID":"198362805","MEAN_ELEMENT_THEORY":"SGP4","RCS_SIZE":"LARGE","ECCENTRICITY":"0.00021140","TLE_LINE1":"1 48649U 21044M   22068.73546613  .00023043  00000-0  15648-2 0  9993","RA_OF_ASC_NODE":"200.0893","FILE":"3352875","ELEMENT_SET_NO":"999","SITE":"AFETR","MEAN_MOTION_DOT":"0.00023043","MEAN_MOTION":"15.06304324","TLE_LINE2":"2 48649  53.0548 200.0893 0002114  62.3717 297.7486 15.06304324 43507"},{"ARG_OF_PERICENTER":"87.0602","NORAD_CAT_ID":"48650","CLASSIFICATION_TYPE":"U","BSTAR":"0.00070397000000","REV_AT_EPOCH":"4352","PERIAPSIS":"546.223","COUNTRY_CODE":"US","REF_FRAME":"TEME","EPOCH":"2022-03-09T20:44:49.987680","MEAN_MOTION_DDOT":"0.0000000000000","TIME_SYSTEM":"UTC","DECAY_DATE":null,"OBJECT_NAME":"STARLINK-2672","PERIOD":"95.592","APOAPSIS":"548.172","OBJECT_TYPE":"PAYLOAD","LAUNCH_DATE":"2021-05-26","INCLINATION":"53.0539","EPHEMERIS_TYPE":"0","MEAN_ANOMALY":"273.0548","SEMIMAJOR_AXIS":"6925.333","MEAN_MOTION":"15.06405236","TLE_LINE2":"2 48650  53.0539 199.5196 0001407  87.0602 273.0548 15.06405236 43520","SITE":"AFETR","MEAN_MOTION_DOT":"0.00010221","FILE":"3352875","RA_OF_ASC_NODE":"199.5196","TLE_LINE1":"1 48650U 21044N   22068.86446745  .00010221  00000-0  70397-3 0  9991","ECCENTRICITY":"0.00014070","ELEMENT_SET_NO":"999","GP_ID":"198361553","MEAN_ELEMENT_THEORY":"SGP4","CENTER_NAME":"EARTH","OBJECT_ID":"2021-044N","RCS_SIZE":"LARGE"},{"SITE":"AFETR","MEAN_MOTION_DOT":"0.00001023","MEAN_MOTION":"15.06390780","TLE_LINE2":"2 48651  53.0565 200.1303 0001261  81.2477 278.8655 15.06390780 43500","GP_ID":"198361803","MEAN_ELEMENT_THEORY":"SGP4","CENTER_NAME":"EARTH","OBJECT_ID":"2021-044P","RCS_SIZE":"LARGE","FILE":"3352875","RA_OF_ASC_NODE":"200.1303","ECCENTRICITY":"0.00012610","TLE_LINE1":"1 48651U 21044P   22068.72807409  .00001023  00000-0  87566-4 0  9992","ELEMENT_SET_NO":"999","BSTAR":"0.00008756600000","REV_AT_EPOCH":"4350","PERIAPSIS":"546.369","EPOCH":"2022-03-09T17:28:25.601376","COUNTRY_CODE":"US","REF_FRAME":"TEME","MEAN_MOTION_DDOT":"0.0000000000000","TIME_SYSTEM":"UTC","ARG_OF_PERICENTER":"81.2477","NORAD_CAT_ID":"48651","CLASSIFICATION_TYPE":"U","EPHEMERIS_TYPE":"0","INCLINATION":"53.0565","MEAN_ANOMALY":"278.8655","SEMIMAJOR_AXIS":"6925.377","DECAY_DATE":null,"OBJECT_NAME":"STARLINK-2731","PERIOD":"95.593","APOAPSIS":"548.115","OBJECT_TYPE":"PAYLOAD","LAUNCH_DATE":"2021-05-26"}];
